<?xml version="1.0" encoding="UTF-8"?>
<kml xmlns="http://www.opengis.net/kml/2.2" xmlns:gx="http://www.google.com/kml/ext/2.2" xmlns:kml="http://www.opengis.net/kml/2.2" xmlns:atom="http://www.w3.org/2005/Atom">
<Document id="document">
	<name>Untitled map project</name>
	<gx:CascadingStyle kml:id="__managed_style_0E350AAF423FE235B58B_highlight">
		<Style>
			<IconStyle>
				<scale>1.2</scale>
				<Icon>
					<href>https://earth.google.com/earth/document/icon?color=1976d2&amp;id=2000&amp;scale=4</href>
				</Icon>
				<hotSpot x="64" y="128" xunits="pixels" yunits="insetPixels"/>
			</IconStyle>
			<LabelStyle>
			</LabelStyle>
			<LineStyle>
				<color>ff2dc0fb</color>
				<width>4.8</width>
			</LineStyle>
			<PolyStyle>
				<color>40ffffff</color>
			</PolyStyle>
			<BalloonStyle>
				<displayMode>hide</displayMode>
			</BalloonStyle>
		</Style>
	</gx:CascadingStyle>
	<gx:CascadingStyle kml:id="__managed_style_0E350AAF423FE235B58B_normal">
		<Style>
			<IconStyle>
				<Icon>
					<href>https://earth.google.com/earth/document/icon?color=1976d2&amp;id=2000&amp;scale=4</href>
				</Icon>
				<hotSpot x="64" y="128" xunits="pixels" yunits="insetPixels"/>
			</IconStyle>
			<LabelStyle>
			</LabelStyle>
			<LineStyle>
				<color>ff2dc0fb</color>
				<width>3.2</width>
			</LineStyle>
			<PolyStyle>
				<color>40ffffff</color>
			</PolyStyle>
			<BalloonStyle>
				<displayMode>hide</displayMode>
			</BalloonStyle>
		</Style>
	</gx:CascadingStyle>
	<StyleMap id="__managed_style_0E350AAF423FE235B58B">
		<Pair>
			<key>normal</key>
			<styleUrl>#__managed_style_0E350AAF423FE235B58B_normal</styleUrl>
		</Pair>
		<Pair>
			<key>highlight</key>
			<styleUrl>#__managed_style_0E350AAF423FE235B58B_highlight</styleUrl>
		</Pair>
	</StyleMap>
	<Placemark id="0C51A7D3223FE235B57B">
		<name>ODP_Bungkal1</name>
		<LookAt>
			<longitude>111.9568563051834</longitude>
			<latitude>-7.222343067886437</latitude>
			<altitude>30.12685271054969</altitude>
			<heading>0</heading>
			<tilt>0</tilt>
			<gx:fovy>35</gx:fovy>
			<range>271.956424894197</range>
			<altitudeMode>absolute</altitudeMode>
		</LookAt>
		<styleUrl>#__managed_style_0E350AAF423FE235B58B</styleUrl>
		<Point>
			<coordinates>111.9568461138889,-7.222354020880804,30.20457152295385</coordinates>
		</Point>
	</Placemark>
	<Placemark id="03F3017F553FE2366657">
		<name>ODP_Bungkal2</name>
		<LookAt>
			<longitude>111.9554674413797</longitude>
			<latitude>-7.221679942676123</latitude>
			<altitude>30.62181366081341</altitude>
			<heading>0</heading>
			<tilt>0</tilt>
			<gx:fovy>35</gx:fovy>
			<range>134.8842761125161</range>
			<altitudeMode>absolute</altitudeMode>
		</LookAt>
		<styleUrl>#__managed_style_0E350AAF423FE235B58B</styleUrl>
		<Point>
			<coordinates>111.9554699853551,-7.221670338951787,30.61957327648624</coordinates>
		</Point>
	</Placemark>
	<Placemark id="042F99B87D3FE2379A60">
		<name>ODP_Sidobandung1</name>
		<LookAt>
			<longitude>111.9441721278962</longitude>
			<latitude>-7.216588330682744</latitude>
			<altitude>27.41734004458313</altitude>
			<heading>0</heading>
			<tilt>0</tilt>
			<gx:fovy>35</gx:fovy>
			<range>172.8426593695986</range>
			<altitudeMode>absolute</altitudeMode>
		</LookAt>
		<styleUrl>#__managed_style_0E350AAF423FE235B58B</styleUrl>
		<Point>
			<coordinates>111.9440924533309,-7.216451178078382,29.30025486199085</coordinates>
		</Point>
	</Placemark>
	<Placemark id="06CA3605753FE239E3D7">
		<name>ODP_Sidobandung2</name>
		<LookAt>
			<longitude>111.9418318894266</longitude>
			<latitude>-7.215801130324473</latitude>
			<altitude>28.80384515474118</altitude>
			<heading>0</heading>
			<tilt>0</tilt>
			<gx:fovy>35</gx:fovy>
			<range>48.78889300751325</range>
			<altitudeMode>absolute</altitudeMode>
		</LookAt>
		<styleUrl>#__managed_style_0E350AAF423FE235B58B</styleUrl>
		<Point>
			<coordinates>111.9419710360468,-7.215886186539113,28.3165527970041</coordinates>
		</Point>
	</Placemark>
	<Placemark id="00ED5C09DD3FE23A6B2C">
		<name>ODP_Sidobandung3</name>
		<LookAt>
			<longitude>111.941154078433</longitude>
			<latitude>-7.215661573333454</latitude>
			<altitude>28.55313295778257</altitude>
			<heading>0</heading>
			<tilt>0</tilt>
			<gx:fovy>35</gx:fovy>
			<range>72.25797965123093</range>
			<altitudeMode>absolute</altitudeMode>
		</LookAt>
		<styleUrl>#__managed_style_0E350AAF423FE235B58B</styleUrl>
		<Point>
			<coordinates>111.9412127075586,-7.215681931006907,28.62173617483814</coordinates>
		</Point>
	</Placemark>
	<Placemark id="06F1CED88D3FE23ADB23">
		<name>ODP_Sidobandung4</name>
		<LookAt>
			<longitude>111.9414513389589</longitude>
			<latitude>-7.214803802464942</latitude>
			<altitude>28.03313879263514</altitude>
			<heading>0</heading>
			<tilt>0</tilt>
			<gx:fovy>35</gx:fovy>
			<range>101.466257093216</range>
			<altitudeMode>absolute</altitudeMode>
		</LookAt>
		<styleUrl>#__managed_style_0E350AAF423FE235B58B</styleUrl>
		<Point>
			<coordinates>111.9414735051317,-7.214802860010276,28.12534240218802</coordinates>
		</Point>
	</Placemark>
	<Placemark id="0FFD7A4C293FE23BBEE7">
		<name>ODP_Sidobandung5</name>
		<LookAt>
			<longitude>111.94155745089</longitude>
			<latitude>-7.213426313695964</latitude>
			<altitude>28.52506601243266</altitude>
			<heading>0</heading>
			<tilt>0</tilt>
			<gx:fovy>35</gx:fovy>
			<range>98.71119380131859</range>
			<altitudeMode>absolute</altitudeMode>
		</LookAt>
		<styleUrl>#__managed_style_0E350AAF423FE235B58B</styleUrl>
		<Point>
			<coordinates>111.9415531351512,-7.213497571520397,28.54857276652318</coordinates>
		</Point>
	</Placemark>
	<Placemark id="0C21D8B7373FE23C50D9">
		<name>ODP_Barek1</name>
		<LookAt>
			<longitude>111.9394883390889</longitude>
			<latitude>-7.215937714838972</latitude>
			<altitude>28.90777834836791</altitude>
			<heading>0</heading>
			<tilt>0</tilt>
			<gx:fovy>35</gx:fovy>
			<range>247.6206408944199</range>
			<altitudeMode>absolute</altitudeMode>
		</LookAt>
		<styleUrl>#__managed_style_0E350AAF423FE235B58B</styleUrl>
		<Point>
			<coordinates>111.9397471309791,-7.216029188789268,28.83789271292901</coordinates>
		</Point>
	</Placemark>
	<Placemark id="0FBCD23B033FE23CEFF1">
		<name>ODP_Barek2</name>
		<LookAt>
			<longitude>111.9379432444306</longitude>
			<latitude>-7.215910034072698</latitude>
			<altitude>27.61361817538169</altitude>
			<heading>0</heading>
			<tilt>0</tilt>
			<gx:fovy>35</gx:fovy>
			<range>207.5550777803438</range>
			<altitudeMode>absolute</altitudeMode>
		</LookAt>
		<styleUrl>#__managed_style_0E350AAF423FE235B58B</styleUrl>
		<Point>
			<coordinates>111.9376004992429,-7.215864310122621,27.35692218545556</coordinates>
		</Point>
	</Placemark>
	<Placemark id="035E46BC603FE23D4973">
		<name>ODP_Barek3</name>
		<LookAt>
			<longitude>111.9374887438291</longitude>
			<latitude>-7.217365298774662</latitude>
			<altitude>27.76812242366463</altitude>
			<heading>0</heading>
			<tilt>0</tilt>
			<gx:fovy>35</gx:fovy>
			<range>207.4005759030115</range>
			<altitudeMode>absolute</altitudeMode>
		</LookAt>
		<styleUrl>#__managed_style_0E350AAF423FE235B58B</styleUrl>
		<Point>
			<coordinates>111.9373611300744,-7.217227952834153,26.83410704022922</coordinates>
		</Point>
	</Placemark>
	<Placemark id="03EA388D0E3FE23D9780">
		<name>ODP_Barek4</name>
		<LookAt>
			<longitude>111.9373499877125</longitude>
			<latitude>-7.218447275827852</latitude>
			<altitude>28.23854357143023</altitude>
			<heading>0</heading>
			<tilt>0</tilt>
			<gx:fovy>35</gx:fovy>
			<range>270.9174426476966</range>
			<altitudeMode>absolute</altitudeMode>
		</LookAt>
		<styleUrl>#__managed_style_0E350AAF423FE235B58B</styleUrl>
		<Point>
			<coordinates>111.9370072289491,-7.218704401045082,28.88923412710242</coordinates>
		</Point>
	</Placemark>
	<Placemark id="088FD913003FE23E48F1">
		<name>ODP_Barek5</name>
		<LookAt>
			<longitude>111.9363124353536</longitude>
			<latitude>-7.21543262083572</latitude>
			<altitude>28.41299611063636</altitude>
			<heading>0</heading>
			<tilt>0</tilt>
			<gx:fovy>35</gx:fovy>
			<range>173.8735526339224</range>
			<altitudeMode>absolute</altitudeMode>
		</LookAt>
		<styleUrl>#__managed_style_0E350AAF423FE235B58B</styleUrl>
		<Point>
			<coordinates>111.9362079457653,-7.215431070336821,27.63866174124772</coordinates>
		</Point>
	</Placemark>
	<Placemark id="0B7D0045D83FE23EED94">
		<name>ODP_Barek6</name>
		<LookAt>
			<longitude>111.9354174264903</longitude>
			<latitude>-7.217952085796096</latitude>
			<altitude>28.0746224854955</altitude>
			<heading>359.0627716756993</heading>
			<tilt>0</tilt>
			<gx:fovy>35</gx:fovy>
			<range>174.211910818176</range>
			<altitudeMode>absolute</altitudeMode>
		</LookAt>
		<styleUrl>#__managed_style_0E350AAF423FE235B58B</styleUrl>
		<Point>
			<coordinates>111.9351997502709,-7.217829295668587,28.84931163879991</coordinates>
		</Point>
	</Placemark>
	<Placemark id="0D97B142093FE23F6696">
		<name>ODP_Barek7</name>
		<LookAt>
			<longitude>111.9346581960355</longitude>
			<latitude>-7.218142598617128</latitude>
			<altitude>28.81245785390132</altitude>
			<heading>359.0627707017577</heading>
			<tilt>0</tilt>
			<gx:fovy>35</gx:fovy>
			<range>173.4740982977564</range>
			<altitudeMode>absolute</altitudeMode>
		</LookAt>
		<styleUrl>#__managed_style_0E350AAF423FE235B58B</styleUrl>
		<Point>
			<coordinates>111.9344782230677,-7.218087917129872,28.5926347975545</coordinates>
		</Point>
	</Placemark>
	<Placemark id="03267D3AD53FE240CAB8">
		<name>ODP_Barek_MasTO1</name>
		<LookAt>
			<longitude>111.9385117701298</longitude>
			<latitude>-7.216617186563581</latitude>
			<altitude>28.6732157308423</altitude>
			<heading>359.0627625288395</heading>
			<tilt>0</tilt>
			<gx:fovy>35</gx:fovy>
			<range>88.22371831581222</range>
			<altitudeMode>absolute</altitudeMode>
		</LookAt>
		<styleUrl>#__managed_style_0E350AAF423FE235B58B</styleUrl>
		<Point>
			<coordinates>111.9386564575184,-7.216647324463433,28.81653202572764</coordinates>
		</Point>
	</Placemark>
	<Placemark id="07C357825E3FE241FA21">
		<name>ODP_Barek_MasTo2</name>
		<LookAt>
			<longitude>111.9384597264402</longitude>
			<latitude>-7.216997047913988</latitude>
			<altitude>29.22162322790253</altitude>
			<heading>359.0627611161956</heading>
			<tilt>0</tilt>
			<gx:fovy>35</gx:fovy>
			<range>74.36055875475178</range>
			<altitudeMode>absolute</altitudeMode>
		</LookAt>
		<styleUrl>#__managed_style_0E350AAF423FE235B58B</styleUrl>
		<Point>
			<coordinates>111.9385961649257,-7.217021409378631,29.0202383635091</coordinates>
		</Point>
	</Placemark>
	<Placemark id="0C7250B48F3FE2426F50">
		<name>ODP_Barek_MasTo3</name>
		<LookAt>
			<longitude>111.9384440379084</longitude>
			<latitude>-7.217234612251206</latitude>
			<altitude>29.03221119637506</altitude>
			<heading>359.0627601950343</heading>
			<tilt>0</tilt>
			<gx:fovy>35</gx:fovy>
			<range>74.54997189111964</range>
			<altitudeMode>absolute</altitudeMode>
		</LookAt>
		<styleUrl>#__managed_style_0E350AAF423FE235B58B</styleUrl>
		<Point>
			<coordinates>111.9385642038879,-7.21729710889803,28.51491399191075</coordinates>
		</Point>
	</Placemark>
	<Placemark id="05408015563FE242D2F7">
		<name>ODP_Barek_MasTo4</name>
		<LookAt>
			<longitude>111.9383305973412</longitude>
			<latitude>-7.218056593689259</latitude>
			<altitude>28.54056207098899</altitude>
			<heading>359.062757886109</heading>
			<tilt>0</tilt>
			<gx:fovy>35</gx:fovy>
			<range>58.3539579824992</range>
			<altitudeMode>absolute</altitudeMode>
		</LookAt>
		<styleUrl>#__managed_style_0E350AAF423FE235B58B</styleUrl>
		<Point>
			<coordinates>111.9383842255342,-7.218169467394595,28.54916156157704</coordinates>
		</Point>
	</Placemark>
	<Placemark id="0778CD76873FE243109C">
		<name>ODP_Barek_MasTo5</name>
		<LookAt>
			<longitude>111.9380874616114</longitude>
			<latitude>-7.218921938569737</latitude>
			<altitude>28.99030235357293</altitude>
			<heading>359.0627570488534</heading>
			<tilt>0</tilt>
			<gx:fovy>35</gx:fovy>
			<range>108.012039938003</range>
			<altitudeMode>absolute</altitudeMode>
		</LookAt>
		<styleUrl>#__managed_style_0E350AAF423FE235B58B</styleUrl>
		<Point>
			<coordinates>111.9381635823322,-7.218921705631103,29.18506332064758</coordinates>
		</Point>
	</Placemark>
	<Placemark id="0ED3460BEC3FE2435BCC">
		<name>ODP_Barek_MasTo6</name>
		<LookAt>
			<longitude>111.9374625333761</longitude>
			<latitude>-7.21884055199008</latitude>
			<altitude>28.83575137238015</altitude>
			<heading>359.0627566707211</heading>
			<tilt>0</tilt>
			<gx:fovy>35</gx:fovy>
			<range>147.1055461237302</range>
			<altitudeMode>absolute</altitudeMode>
		</LookAt>
		<styleUrl>#__managed_style_0E350AAF423FE235B58B</styleUrl>
		<Point>
			<coordinates>111.9374992415224,-7.218778325125806,28.64416463440669</coordinates>
		</Point>
	</Placemark>
	<Placemark id="02144357E03FE2439170">
		<name>ODP_Barek_MasTo7</name>
		<LookAt>
			<longitude>111.9374312242114</longitude>
			<latitude>-7.219247490851543</latitude>
			<altitude>28.80420140140341</altitude>
			<heading>359.062756338771</heading>
			<tilt>0</tilt>
			<gx:fovy>35</gx:fovy>
			<range>147.1371024252585</range>
			<altitudeMode>absolute</altitudeMode>
		</LookAt>
		<styleUrl>#__managed_style_0E350AAF423FE235B58B</styleUrl>
		<Point>
			<coordinates>111.9374557745298,-7.219285878086598,28.71654130299065</coordinates>
		</Point>
	</Placemark>
	<Placemark id="019EB950D23FE2441F6B">
		<name>ODP_Suan1</name>
		<LookAt>
			<longitude>111.9343385222384</longitude>
			<latitude>-7.214950946900944</latitude>
			<altitude>27.19704566417082</altitude>
			<heading>359.0627544731084</heading>
			<tilt>0</tilt>
			<gx:fovy>35</gx:fovy>
			<range>164.5951540022179</range>
			<altitudeMode>absolute</altitudeMode>
		</LookAt>
		<styleUrl>#__managed_style_0E350AAF423FE235B58B</styleUrl>
		<Point>
			<coordinates>111.9342527048045,-7.214853038244799,26.92497577906546</coordinates>
		</Point>
	</Placemark>
	<Placemark id="0DB928EFCD3FE24523EC">
		<name>ODP_Suan2</name>
		<LookAt>
			<longitude>111.9344706327463</longitude>
			<latitude>-7.216062173407261</latitude>
			<altitude>28.03307104653799</altitude>
			<heading>359.0627514603113</heading>
			<tilt>0</tilt>
			<gx:fovy>35</gx:fovy>
			<range>62.0764021220748</range>
			<altitudeMode>absolute</altitudeMode>
		</LookAt>
		<styleUrl>#__managed_style_0E350AAF423FE235B58B</styleUrl>
		<Point>
			<coordinates>111.9346053909385,-7.216068698283392,27.64490183313883</coordinates>
		</Point>
	</Placemark>
	<Placemark id="0D1B593BA93FE245A2D9">
		<name>ODP_Suan3</name>
		<LookAt>
			<longitude>111.9341570763919</longitude>
			<latitude>-7.21689126661971</latitude>
			<altitude>28.21762328125108</altitude>
			<heading>359.0627479254976</heading>
			<tilt>0</tilt>
			<gx:fovy>35</gx:fovy>
			<range>130.530306128785</range>
			<altitudeMode>absolute</altitudeMode>
		</LookAt>
		<styleUrl>#__managed_style_0E350AAF423FE235B58B</styleUrl>
		<Point>
			<coordinates>111.9339470964094,-7.217051054039415,28.37216721890948</coordinates>
		</Point>
	</Placemark>
	<Placemark id="0989F0398F3FE245FBD7">
		<name>ODP_Suan4</name>
		<LookAt>
			<longitude>111.9344048004813</longitude>
			<latitude>-7.21426046049396</latitude>
			<altitude>27.08306800291061</altitude>
			<heading>359.062745954907</heading>
			<tilt>0</tilt>
			<gx:fovy>35</gx:fovy>
			<range>183.1574675342745</range>
			<altitudeMode>absolute</altitudeMode>
		</LookAt>
		<styleUrl>#__managed_style_0E350AAF423FE235B58B</styleUrl>
		<Point>
			<coordinates>111.9344838112328,-7.214107138233914,26.35919781007704</coordinates>
		</Point>
	</Placemark>
	<Placemark id="04291E463F3FE24762A4">
		<name>ODP_Suan5</name>
		<LookAt>
			<longitude>111.9356068084594</longitude>
			<latitude>-7.213708208052251</latitude>
			<altitude>26.92835781152848</altitude>
			<heading>359.0627427121091</heading>
			<tilt>0</tilt>
			<gx:fovy>35</gx:fovy>
			<range>183.3121780100009</range>
			<altitudeMode>absolute</altitudeMode>
		</LookAt>
		<styleUrl>#__managed_style_0E350AAF423FE235B58B</styleUrl>
		<Point>
			<coordinates>111.9354806771298,-7.21365871004297,27.14210862260201</coordinates>
		</Point>
	</Placemark>
	<Placemark id="0C9106F5F03FE247E004">
		<name>ODP_Suan6</name>
		<LookAt>
			<longitude>111.9349289722803</longitude>
			<latitude>-7.212709196082819</latitude>
			<altitude>26.02081079104514</altitude>
			<heading>359.0627407293179</heading>
			<tilt>0</tilt>
			<gx:fovy>35</gx:fovy>
			<range>184.2197085017324</range>
			<altitudeMode>absolute</altitudeMode>
		</LookAt>
		<styleUrl>#__managed_style_0E350AAF423FE235B58B</styleUrl>
		<Point>
			<coordinates>111.9349595842587,-7.212887693367665,25.7294664573175</coordinates>
		</Point>
	</Placemark>
	<Placemark id="06C124A3303FE24840C0">
		<name>ODP_Suan7</name>
		<LookAt>
			<longitude>111.9351824493869</longitude>
			<latitude>-7.21204780350825</latitude>
			<altitude>26.31775287009491</altitude>
			<heading>359.062738195492</heading>
			<tilt>0</tilt>
			<gx:fovy>35</gx:fovy>
			<range>183.9227686875347</range>
			<altitudeMode>absolute</altitudeMode>
		</LookAt>
		<styleUrl>#__managed_style_0E350AAF423FE235B58B</styleUrl>
		<Point>
			<coordinates>111.9351354006851,-7.21219286436893,26.22029584205472</coordinates>
		</Point>
	</Placemark>
	<Placemark id="0BEF31986A3FE248D700">
		<name>ODP_Jati1</name>
		<LookAt>
			<longitude>111.9321845786273</longitude>
			<latitude>-7.213505770878332</latitude>
			<altitude>27.8122018506273</altitude>
			<heading>359.0627341110329</heading>
			<tilt>0</tilt>
			<gx:fovy>35</gx:fovy>
			<range>152.4706041131322</range>
			<altitudeMode>absolute</altitudeMode>
		</LookAt>
		<styleUrl>#__managed_style_0E350AAF423FE235B58B</styleUrl>
		<Point>
			<coordinates>111.9321251856656,-7.213531016384218,28.08351563021273</coordinates>
		</Point>
	</Placemark>
	<Placemark id="00FF1DD77F3FE2495940">
		<name>ODP_Jati2</name>
		<LookAt>
			<longitude>111.9305006938069</longitude>
			<latitude>-7.213947255673306</latitude>
			<altitude>27.11713719107245</altitude>
			<heading>359.0627325631629</heading>
			<tilt>0</tilt>
			<gx:fovy>35</gx:fovy>
			<range>208.7831892376198</range>
			<altitudeMode>absolute</altitudeMode>
		</LookAt>
		<styleUrl>#__managed_style_0E350AAF423FE235B58B</styleUrl>
		<Point>
			<coordinates>111.9301555678918,-7.214113782933961,27.37709554552429</coordinates>
		</Point>
	</Placemark>
	<Placemark id="0DE3EFD3303FE249FC70">
		<name>ODP_Jati3</name>
		<LookAt>
			<longitude>111.9293501564937</longitude>
			<latitude>-7.21288037293441</latitude>
			<altitude>26.78105592868487</altitude>
			<heading>359.0627310678131</heading>
			<tilt>0</tilt>
			<gx:fovy>35</gx:fovy>
			<range>146.1068813113161</range>
			<altitudeMode>absolute</altitudeMode>
		</LookAt>
		<styleUrl>#__managed_style_0E350AAF423FE235B58B</styleUrl>
		<Point>
			<coordinates>111.9295688789789,-7.212804227417535,27.40506141283148</coordinates>
		</Point>
	</Placemark>
	<Placemark id="0902A911AF3FE24CA508">
		<name>ODP_Jati4</name>
		<LookAt>
			<longitude>111.9314874450624</longitude>
			<latitude>-7.210993903399247</latitude>
			<altitude>26.98444132942812</altitude>
			<heading>359.0627244544231</heading>
			<tilt>0</tilt>
			<gx:fovy>35</gx:fovy>
			<range>275.6376302901117</range>
			<altitudeMode>absolute</altitudeMode>
		</LookAt>
		<styleUrl>#__managed_style_0E350AAF423FE235B58B</styleUrl>
		<Point>
			<coordinates>111.9316638439068,-7.211197898033999,25.68398772240364</coordinates>
		</Point>
	</Placemark>
	<Placemark id="04C193E90D3FE24CE78B">
		<name>ODP_Jati5</name>
		<LookAt>
			<longitude>111.9317728764511</longitude>
			<latitude>-7.209257881128988</latitude>
			<altitude>26.29014829691544</altitude>
			<heading>359.0627231277281</heading>
			<tilt>0</tilt>
			<gx:fovy>35</gx:fovy>
			<range>78.02817048864199</range>
			<altitudeMode>absolute</altitudeMode>
		</LookAt>
		<styleUrl>#__managed_style_0E350AAF423FE235B58B</styleUrl>
		<Point>
			<coordinates>111.9318121491852,-7.209291522660902,25.87848808436497</coordinates>
		</Point>
	</Placemark>
	<Placemark id="00534C94733FE24D2148">
		<name>ODP_Jati6</name>
		<LookAt>
			<longitude>111.931821808048</longitude>
			<latitude>-7.208743923278213</latitude>
			<altitude>26.36322153129753</altitude>
			<heading>359.0627225316159</heading>
			<tilt>0</tilt>
			<gx:fovy>35</gx:fovy>
			<range>84.72857109875804</range>
			<altitudeMode>absolute</altitudeMode>
		</LookAt>
		<styleUrl>#__managed_style_0E350AAF423FE235B58B</styleUrl>
		<Point>
			<coordinates>111.9318462222299,-7.208747466672652,26.09115433968272</coordinates>
		</Point>
	</Placemark>
	<Placemark id="0C9A2DA95D3FE24E92B3">
		<name>ODP_Kemamang1</name>
		<LookAt>
			<longitude>111.9570575162708</longitude>
			<latitude>-7.214557151134385</latitude>
			<altitude>29.08992069558271</altitude>
			<heading>359.0627178635966</heading>
			<tilt>0</tilt>
			<gx:fovy>35</gx:fovy>
			<range>105.0060791330361</range>
			<altitudeMode>absolute</altitudeMode>
		</LookAt>
		<styleUrl>#__managed_style_0E350AAF423FE235B58B</styleUrl>
		<Point>
			<coordinates>111.9571951612852,-7.21463201637552,29.13441263826232</coordinates>
		</Point>
	</Placemark>
	<Placemark id="0C52C1FA573FE2505AD1">
		<name>ODP_Kemamang2</name>
		<LookAt>
			<longitude>111.9584321072122</longitude>
			<latitude>-7.214964585986989</latitude>
			<altitude>29.17114825475089</altitude>
			<heading>359.0627125107168</heading>
			<tilt>0</tilt>
			<gx:fovy>35</gx:fovy>
			<range>65.90592677069255</range>
			<altitudeMode>absolute</altitudeMode>
		</LookAt>
		<styleUrl>#__managed_style_0E350AAF423FE235B58B</styleUrl>
		<Point>
			<coordinates>111.9585465689615,-7.214991316225516,28.71838248627162</coordinates>
		</Point>
	</Placemark>
	<Placemark id="0F41B6A3B53FE250D5DB">
		<name>ODP_Kemamang3</name>
		<LookAt>
			<longitude>111.9585816666729</longitude>
			<latitude>-7.21548302305713</latitude>
			<altitude>29.60846288541908</altitude>
			<heading>359.0627088209367</heading>
			<tilt>0</tilt>
			<gx:fovy>35</gx:fovy>
			<range>110.7707305242002</range>
			<altitudeMode>absolute</altitudeMode>
		</LookAt>
		<styleUrl>#__managed_style_0E350AAF423FE235B58B</styleUrl>
		<Point>
			<coordinates>111.958655712935,-7.215655973456412,28.66992920129266</coordinates>
		</Point>
	</Placemark>
	<Placemark id="055D185C753FE25161BE">
		<name>ODP_Kemamang4</name>
		<LookAt>
			<longitude>111.9594340845448</longitude>
			<latitude>-7.215890288444554</latitude>
			<altitude>29.13189366298209</altitude>
			<heading>359.0627066802393</heading>
			<tilt>0</tilt>
			<gx:fovy>35</gx:fovy>
			<range>157.2085805630559</range>
			<altitudeMode>absolute</altitudeMode>
		</LookAt>
		<styleUrl>#__managed_style_0E350AAF423FE235B58B</styleUrl>
		<Point>
			<coordinates>111.9596692562083,-7.216051445947466,29.32392105261447</coordinates>
		</Point>
	</Placemark>
	<Placemark id="0EAEE330043FE2548814">
		<name>ODP_Kemamang5</name>
		<LookAt>
			<longitude>111.9589988142867</longitude>
			<latitude>-7.217881182388431</latitude>
			<altitude>29.59140949419756</altitude>
			<heading>359.0627038340185</heading>
			<tilt>0</tilt>
			<gx:fovy>35</gx:fovy>
			<range>84.53025776423603</range>
			<altitudeMode>absolute</altitudeMode>
		</LookAt>
		<styleUrl>#__managed_style_0E350AAF423FE235B58B</styleUrl>
		<Point>
			<coordinates>111.9590495431522,-7.217876421145416,29.33728933427079</coordinates>
		</Point>
	</Placemark>
	<Placemark id="0FD36B1C493FE254F4B9">
		<name>ODP_Kemamang6</name>
		<LookAt>
			<longitude>111.9587353736954</longitude>
			<latitude>-7.219167570240787</latitude>
			<altitude>29.3386009113869</altitude>
			<heading>359.062701968035</heading>
			<tilt>0</tilt>
			<gx:fovy>35</gx:fovy>
			<range>86.15133382985732</range>
			<altitudeMode>absolute</altitudeMode>
		</LookAt>
		<styleUrl>#__managed_style_0E350AAF423FE235B58B</styleUrl>
		<Point>
			<coordinates>111.9587851992072,-7.219317059595264,29.35622779823984</coordinates>
		</Point>
	</Placemark>
	<Placemark id="04C822C3CB3FE255AEA8">
		<name>ODP_Kemamang7</name>
		<LookAt>
			<longitude>111.9578763061419</longitude>
			<latitude>-7.222309746634993</latitude>
			<altitude>30.48346962163154</altitude>
			<heading>359.0627003018669</heading>
			<tilt>0</tilt>
			<gx:fovy>35</gx:fovy>
			<range>372.5394416198106</range>
			<altitudeMode>absolute</altitudeMode>
		</LookAt>
		<styleUrl>#__managed_style_0E350AAF423FE235B58B</styleUrl>
		<Point>
			<coordinates>111.9579547749036,-7.222692912463932,30.53521448645494</coordinates>
		</Point>
	</Placemark>
	<Placemark id="0EA682A0D33FE25843CF">
		<name>ODP_BalenS1</name>
		<LookAt>
			<longitude>111.9589077542413</longitude>
			<latitude>-7.195469680096537</latitude>
			<altitude>24.76138572366136</altitude>
			<heading>359.0626880157917</heading>
			<tilt>0</tilt>
			<gx:fovy>35</gx:fovy>
			<range>49.1856181813546</range>
			<altitudeMode>absolute</altitudeMode>
		</LookAt>
		<styleUrl>#__managed_style_0E350AAF423FE235B58B</styleUrl>
		<Point>
			<coordinates>111.9588963034605,-7.195542583629679,24.55300350325984</coordinates>
		</Point>
	</Placemark>
	<Placemark id="05EA2B492B3FE258F884">
		<name>ODP_BalenS2</name>
		<LookAt>
			<longitude>111.9577445035663</longitude>
			<latitude>-7.1947923655872</latitude>
			<altitude>24.01089492200042</altitude>
			<heading>359.0626852660359</heading>
			<tilt>0</tilt>
			<gx:fovy>35</gx:fovy>
			<range>129.1256624859853</range>
			<altitudeMode>absolute</altitudeMode>
		</LookAt>
		<styleUrl>#__managed_style_0E350AAF423FE235B58B</styleUrl>
		<Point>
			<coordinates>111.9575128147185,-7.194681247173059,24.81002072447104</coordinates>
		</Point>
	</Placemark>
	<Placemark id="0FA35199D13FE25B89F9">
		<name>ODP_BalenS3</name>
		<LookAt>
			<longitude>111.9586450918135</longitude>
			<latitude>-7.19695176877026</latitude>
			<altitude>24.99329468289131</altitude>
			<heading>359.0626731900971</heading>
			<tilt>0</tilt>
			<gx:fovy>35</gx:fovy>
			<range>135.86556931421</range>
			<altitudeMode>absolute</altitudeMode>
		</LookAt>
		<styleUrl>#__managed_style_0E350AAF423FE235B58B</styleUrl>
		<Point>
			<coordinates>111.958449475678,-7.196911677560797,25.12687050676681</coordinates>
		</Point>
	</Placemark>
	<Placemark id="0FFB3821143FE25BDA90">
		<name>ODP_BalenS4</name>
		<LookAt>
			<longitude>111.9571529134378</longitude>
			<latitude>-7.196557806332911</latitude>
			<altitude>25.82270306717994</altitude>
			<heading>359.0626694768126</heading>
			<tilt>0</tilt>
			<gx:fovy>35</gx:fovy>
			<range>135.0361589211207</range>
			<altitudeMode>absolute</altitudeMode>
		</LookAt>
		<styleUrl>#__managed_style_0E350AAF423FE235B58B</styleUrl>
		<Point>
			<coordinates>111.9570528121685,-7.196534087972949,25.06576250717412</coordinates>
		</Point>
	</Placemark>
	<Placemark id="08E08AE3013FE25E2A37">
		<name>ODP_BalenS5</name>
		<LookAt>
			<longitude>111.9581941653616</longitude>
			<latitude>-7.213290105229946</latitude>
			<altitude>28.74924369465079</altitude>
			<heading>359.0626622276802</heading>
			<tilt>0</tilt>
			<gx:fovy>35</gx:fovy>
			<range>198.0254223827797</range>
			<altitudeMode>absolute</altitudeMode>
		</LookAt>
		<styleUrl>#__managed_style_0E350AAF423FE235B58B</styleUrl>
		<Point>
			<coordinates>111.9585270474453,-7.213105772568881,28.38617396109562</coordinates>
		</Point>
	</Placemark>
</Document>
</kml>
